	lat	lon	adder	state	zipcode
0	38.9118	-94.6608	119th Stn  6621 West 119th Street  Overland Park	KS	66209-2020
1	36.1049	-95.9732	Brooksiden  1401 East 41st Street  Tulsa	OK	74105
2	29.9207	-90.1178	Arabella Stationn  5600 Magazine Street  New Orleans	LA	70115
3	30.2196	-97.8416	Arbor Trailsn  4301 W. William Cannon  Austin	TX	78749
4	35.1464	-106.556	Academyn  5815 Wyoming Blvd NE  Albuquerque	NM	87109
5	38.5967	-121.364	Sacramenton  4315 Arden Way  Sacramento	CA	95864
6	38.8892	-77.0909	Arlington VAn  2700 Wilson Blvd  Arlington	VA	22201
7	34.1378	-118.148	Arroyon  465 South Arroyo Parkway  Pasadena	CA	91105
8	35.6019	-82.5547	Ashevillen  70 Merrimon Ave  Asheville	NC	28801
9	42.6609	-71.1446	Andovern  40 Railroad St.  Andover	MA	01810
10	26.3658	-80.1149	Boca Ratonn  1400 Glades Rd  Boca Raton	FL	33431
11	33.8157	-84.3333	Briarcliffn  2111 Briarcliff Rd NE  Atlanta	GA	30329
12	42.4909	-71.273	Bedfordn  170 Great Rd  Bedford	MA	01730
13	30.3076	-97.9378	Bee Caven  12601 Hill Country Blvd  Bee Cave	TX	78738
14	29.7068	-95.4416	Bellairen  4004 Bellaire Blvd  Houston	TX	77025
15	38.9662	-77.1042	Bethesdan  5269 River Rd  Bethesda	MD	20816
16	28.4491	-81.4766	Orlandon  8003 Turkey Lake Road  Orlando	FL	32819
17	25.9712	-80.1408	Aventuran  21105 Biscayne Blvd  Aventura	FL	33180
18	37.9026	-122.526	Blithedalen  731 East Blithedale  Mill Valley	CA	94941
19	42.1113	-71.4616	Bellinghamn  255 Hartford Ave  Bellingham	MA	02019
20	37.2494	-121.877	Blossom Hilln  1146 Blossom Hill Road  San Jose	CA	95118
21	47.6183	-122.185	Bellevuen  888 116th Ave NE  Bellevue	WA	98004
22	39.7087	-105.081	Belmarn  444 S.Wadsworth Blvd  Lakewood	CO	80226
23	44.0564	-121.266	Bendn  2610 Highway 20  Bend	OR	97701-6261
24	45.3945	-122.752	Bridgeportn  7380 SW Bridgeport Rd.  Tigard	OR	97224
25	42.3428	-71.1404	Brightonn  15 Washington Street  Brighton	MA	02135
26	37.8557	-122.26	Berkeleyn  3000 Telegraph Ave  Berkeley	CA	94705
27	34.0536	-118.467	Brentwoodn  11737 San Vicente Blvd  Los Angeles	CA	90049
28	41.7846	-72.7454	Bishops Cornern  340 N. Main St.  West Hartford	CT	06117
29	30.4323	-91.1112	Baton Rougen  7529 Corporate Blvd  Baton Rouge	LA	70809
30	34.0693	-118.399	Beverly Hillsn  239 North Crescent Dr  Beverly Hills	CA	90210
31	42.3681	-71.1024	Prospect Streetn  115 Prospect St  Camidge	MA	02139
32	36.9743	-121.964	Capitolan  1710 41st Avenue  Capitola	CA	95010
33	35.7374	-78.7772	Caryn  102B New Waverly Place  Cary	NC	27518
34	37.2932	-121.93	Campbelln  1690 South Bascom Ave  Campbell	CA	95008
35	38.9613	-77.0871	Friendship Heightsn  4420 Willard Ave.  Chevy Chase	MD	20815
36	39.7186	-104.958	Cherry Creekn  2375 E. 1st Ave  Denver	CO	80206
37	39.8632	-75.5431	Glen Millsn  475 Wilmington  West Chester Pike  Glen Mills	PA	19342
38	35.6791	-105.95	Santa Fe (Cerrillos)n  753 Cerrillos Rd  Santa Fe	NM	87505
39	39.7365	-105.161	Colfaxn  14357 W. Colfax Ave.  Golden	CO	80401
40	25.7064	-80.2848	Coral Gablesn  6701 Red Road  Coral Gables	FL	33143
41	40.7451	-73.9954	Chelsean  250 7th Ave  New York	NY	10001
42	32.8023	-79.889	Charlestonn  923 Houston Northcutt Blvd  Mount Pleasant	SC	29464
43	35.9344	-79.0279	Chapel Hilln  81 South Elliot Road  Chapel Hill	NC	27514
44	33.3184	-111.893	Chandlern  2955 West Ray Road  Chandler	AZ	85225
45	35.0634	-85.3142	Chattanoogan  301 Manufacturers Rd  Chattanooga	TN	37405
46	38.0598	-78.4891	Charlottesvillen  1797 Hydraulic Road  Charlottesville	VA	22901
47	39.1455	-84.4471	Cincinnatin  2693 Edmondson Rd.  Cincinnati	OH	45209
48	40.7685	-73.9831	Columbus Circlen  10 Columbus Circle  Lower Concourse Level of the Time Warner Center  New York	NY	10019
49	40.9704	-73.9557	Clostern  45 Vervalen Street  Closter	NJ	07624
50	49.264	-123.115	Cambien  510 West 8th Avenue  Vancouver	BC	V5Z
51	38.4579	-122.731	Coddingtownn  390 Coddingtown Mall  Santa Rosa	CA	95401
52	39.7005	-104.94	Colorado Boulevardn  870 S. Colorado Blvd.  Glendale	CO	80246
53	41.7559	-71.4561	Garden City Centern  151 Sockanosset Cross Road  Cranston	RI	02920
54	42.362	-71.0654	Charles River Plazan  181 Camidge St  Boston	MA	02114
55	26.2426	-80.2568	Coral Springsn  810 University Drive  Coral Springs	FL	33071
56	41.5008	-81.5369	Cedar Centern  13998 Cedar Rd.  University Heights	OH	44118
57	41.0733	-73.4761	Darienn  150 Ledge Road  Darien	CT	06820
58	40.0488	-75.4112	Devonn  821 W. Lancaster Ave  Wayne	PA	19087
59	42.233	-71.178	Dedhamn  300 Legacy Place  Dedham	MA	02026
60	36.0071	-78.9206	Durhamn  621 Broad Street  Durham	NC	27705
61	40.0983	-83.087	Columbusn  3670 W. Dublin-Granville Rd  Columbus	OH	43235
62	34.013	-84.1835	Johns Creekn  5945 State Bridge Rd  Johns Creek	GA	30097
63	40.825	-73.9739	Edgewatern  905 River Road  Edgewater	NJ	07020
64	41.1584	-73.2402	Fairfieldn  350 Grasmere Avenue  Fairfield	CT	06824
65	34.0702	-118.361	3rd u0026 Fairfaxn  6350 West 3rd Street  Los Angeles	CA	90036
66	45.5488	-122.651	Fremont - Oregonn  3535 NE 15th Ave.  Portland	OR	97212
67	38.6489	-121.118	Folsomn  270 Palladio Parkway  Folsom	CA	95630
68	42.3891	-71.1414	Fresh Pondn  200 Alewife Brook Pkwy  Camidge	MA	02138
69	42.2985	-71.421	Framinghamn  575 Worcester Rd  Framingham	MA	01701
70	37.79	-122.423	Franklinn  1765 California St  San Francisco	CA	94109
71	38.8578	-77.3777	Fair Lakesn  4501 Market Commons Dr  Fairfax	VA	22033
72	36.8092	-119.805	Fresnon  650 W. Shaw Ave.  Fresno	CA	93704
73	32.9084	-96.8028	Forestn  11700 Preston Rd  Dallas	TX	75230
74	36.1577	-115.288	Fort Apachen  8855 West Charleston Blvd.  Las Vegas	NV	89117
75	33.1311	-96.6565	Fairviewn  Fairview Town Center  105 Stacy Road  Fairview	TX	75069
76	36.0859	-79.8343	Greensboro Friendlyn  3202 West Friendly Avenue  Greensboro	NC	27408-7604
77	36.1031	-86.8187	Green Hillsn  4021 Hillsboro Pike  Nashville	TN	37215
78	41.715	-72.6071	Glastonburyn  55 Welles Street  Glastonbury	CT	06033
79	34.1511	-118.246	Glendalen  331 North Glendale Ave  Glendale	CA	91206
80	41.0331	-73.6239	Greenwichn  90 E. Putnam Ave.  Greenwich	CT	06830
81	38.9011	-77.0491	Foggy Bottomn  2201 I Street NW  Washington	DC	20037
82	30.3881	-97.7414	Gatewayn  9607 Research Blvd.  Austin	TX	78759
83	42.3531	-72.5555	Hadleyn  327 Russell St  Hadley	MA	01035
84	37.8128	-122.261	Oaklandn  230 Bay Place  Oakland	CA	94612
85	36.0234	-115.082	Hendersonn  100 S. Green Valley Pkwy  Henderson	NV	89012
86	42.1777	-70.9096	Hinghamn  94 Derby Street  Derby Street Shoppes  Hingham	MA	02043
87	32.7479	-117.158	Hillcrestn  711 University Ave  San Diego	CA	92103
88	34.0915	-118.361	West Hollywoodn  7871 Santa Monica Blvd  West Hollywood	CA	90046
89	40.7237	-73.9923	Boweryn  95 East Houston St  New York	NY	10002
90	32.8205	-96.8144	Highland Parkn  4100 Lomo Alto Dr  Highland Park	TX	75219
91	45.5369	-122.619	Hollywoodn  4301 NE Sandy Blvd.  Portland	OR	97213
92	40.026	-105.281	Ideal Marketn  1275 Alpine Ave.  Boulder	CO	80304
93	39.284	-76.5995	Harbor Eastn  1001 Fleet Street  Suite A  Baltimore	MD	21202
94	47.6372	-122.377	Interbayn  2001 15th Avenue W  Seattle	WA	98119
95	33.6964	-117.826	Jamboreen  2847 Park Avenue  Tustin	CA	92782
96	30.1851	-81.6267	Jacksonvillen  10601 San Jose Blvd  Jacksonville	FL	32257
97	40.1079	-75.1161	Jenkintownn  1575 The Fairway  Jenkintown	PA	19046
98	40.789	-73.5346	Jerichon  429 North Broadway  Jericho	NY	11753-2106
99	42.3216	-71.111	Jamaica Plainn  413 Centre Street  Jamaica Plain	MA	02130
100	21.3938	-157.743	Kailuan  629 Kailua Road	HI	96734
101	29.7395	-95.4181	Kirbyn  2955 Kirby Dr  Houston	TX	77098
102	49.2685	-123.157	Kitsilanon  2285 West 4th Avenue  Vancouver	BC	V6K
103	21.2769	-157.786	Honolulun  4211 Waiu0027alae Avenue  Honolulu	HI	96816
104	39.1226	-77.2378	Kentlandsn  316 Kentlands Blvd  Gaithersburg	MD	20878-5454
105	37.8934	-122.117	Lafayetten  3502 Mt. Diablo Blvd.  Lafayette	CA	94549
106	32.8687	-117.231	La Jollan  8825 Villa La Jolla Dr  La Jolla	CA	92037-9994
107	37.3989	-122.111	Los Altosn  4800 El Camino Real  Los Altos	CA	94022
108	33.7549	-118.109	Long Beachn  6550 E. Pacific Coast Highway  Long Beach	CA	90803
109	33.5544	-117.713	Laguna Nigueln  23932 Aliso Creek Road  Laguna Niguel	CA	92677
110	37.2365	-121.961	Los Gatosn  15980 Los Gatos Blvd  Los Gatos	CA	95032
111	40.87	-73.1267	Lake Grove n  Lake Grove Commons  120 New Moriches Road  Lake Grove	NY	11755
112	32.8158	-96.7523	Lakewoodn  2118 Aams Road  Dallas	TX	75214
113	45.5233	-122.637	Laurelhurstn  2825 East Burnside St.  Portland	OR	97214
114	30.2706	-97.7533	Lamarn  525 N Lamar Blvd.  Austin	TX	78703
115	47.8199	-122.272	Lynnwoodn  2800 196th St. SW  Lynnwood	WA	98036
116	38.2487	-85.626	Louisville n  4944 Shelbyville Road  Louisville	KY	40207
117	36.0676	-115.174	Las Vegas Blvdn  6689 Las Vegas Blvd.  Las Vegas	NV	89119
118	33.46	-86.7526	Mountain Brookn  3100 Cahaba Village Plaza  Birmingham	AL	35243
119	40.717	-74.2867	Millburn - Unionn  2245 Springfield Ave.  Vauxhall	NJ	07088
120	35.9342	-86.8249	McEwenn  1566 West McEwen Drive  Franklin	TN	37067
121	42.417	-71.1266	Medfordn  2151 Mystic Valley Parkway  Medford	MA	02155
122	33.9811	-84.4267	Merchants Walkn  1311 Johnson Ferry Road NE  Suite 580  Marietta	GA	30068
123	40.7595	-73.9661	Midtown East (E 57th St)n  226 East 57th Street  Between 2nd u0026 3rd Avenue  New York	NY	10022
124	40.7974	-73.6707	Manhassetn  2101 Northern Blvd  Manhasset	NY	11030
125	41.2483	-73.0253	Milfordn  1686 Boston Post Road  Milford	CT	06460
126	45.6147	-122.506	Mill Plainn  815 Southeast 160th Avenue  Vancouver	WA	98683
127	37.896	-122.536	Mill Valleyn  414 Miller Ave  Mill Valley	CA	94941
128	20.8908	-156.464	Mauin  70 East Kaahumanu Avenue #B  Kahului	HI	96732
129	40.8185	-74.223	Montclairn  701 Bloomfield Ave  Montclair	NJ	07042
130	34.0329	-118.495	Montana Avenuen  1425 Montana Ave.  Santa Monica	CA	90403
131	39.908	-74.9378	Marltonn  940 Route 73 North  Marlton	NJ	08053
132	36.5834	-121.9	Montereyn  800 Del Monte Center  Monterey	CA	93940
133	39.3076	-84.3169	Masonn  5805 Deerfield Boulevard  Mason	OH	45040
134	29.7579	-95.3976	Montrosen  701 Waugh Drive  Houston	TX	77019
135	39.3684	-76.6498	Mt. Washingtonn  1330 Smith Ave  Baltimore	MD	21209
136	42.3301	-71.2064	Newtonn  916 Walnut St  Newton	MA	02461
137	37.752	-122.431	Noe Valleyn  3950 24th Street  San Francisco	CA	94114
138	38.1057	-122.565	Novaton  790 De Long Avenue  Novato	CA	94945-7005
139	38.3231	-122.306	Napan  3682 Bel Aire Plaza  Napa	CA	94558
140	35.8995	-78.6504	North Raleighn  8710 Six Forks Rd  Raleigh	NC	27615
141	42.3541	-71.2001	Newtonvillen  647 Washington Street  Newtonville	MA	02458
142	43.4567	-79.6793	Oakvillen  301 Cornwall Rd.  Oakville	ON	L6J
143	35.5341	-97.5307	Oklahoma Cityn  6001 N. Western Ave.  Oklahoma City	OK	73118
144	34.1878	-118.873	Thousand Oaksn  740 North Moorpark Rd  Thousand Oaks	CA	91360
145	32.3365	-110.978	Oraclen  7133 N Oracle Rd  Tucson	AZ	85704
146	40.0066	-83.0526	Upper Arlingtonn  1555 W. Lane Ave  Upper Arlington	OH	43221
147	38.8041	-77.0601	Old Townn  1700 Duke St  Alexandria	VA	22314
148	37.4424	-122.16	Palo Alton  774 Emerson Street  Palo Alto	CA	94301
149	40.9146	-74.0591	Paramusn  300 Bergen Town Center  Paramus	NJ	07652
150	34.151	-118.072	Pasadenan  3751 E. Foothill Blvd.  Pasadena	CA	91107
151	33.9068	-118.391	Plaza El Segundon  760 South Sepulveda Blvd.  El Segundo	CA	90245
152	26.0065	-80.3496	Pemoke Pinesn  14956 Pines Blvd  Pemoke Pines	FL	33027
153	38.2413	-122.635	Petaluman  621 E. Washington St  Petaluma	CA	94952
154	32.8716	-96.7657	Park Lanen  8190 Park Lane	TX	75231
155	32.7669	-97.0991	Arlington TXn  801 East Lamar Blvd.  Arlington	TX	76011
156	40.1159	-75.282	Plymouth Meetingn  500 W. Germantown Pike  Plymouth Meeting	PA	19462
157	33.0296	-96.795	Planon  2201 Preston Road  Plano	TX	75093
158	33.7737	-84.3653	Ponce de Leonn  650 Ponce de Leon Ave NE  Atlanta	GA	30308
159	38.9421	-104.797	Pikes Peakn  7635 North Academy Blvd  Colorado Springs	CO	80920-3207
160	40.31	-74.6673	Princetonn  3495 US Route 1 South  Princeton	NJ	08540
161	41.8277	-71.3864	Providencen  261 Waterman St  Providence	RI	02906
162	45.5234	-122.684	Pearl District Portlandn  1210 NW Couch St  Portland	OR	97209
163	49.3258	-123.144	West Vancouvern  925 Main St  The Park Royal Village  West Vancouver	BC	V7T
164	38.9093	-77.0335	P Streetn  1440 P Street NW  Washington	DC	20005
165	40.4585	-79.929	Pittsburghn  5880 Centre Ave.  Pittsburgh	PA	15206
166	37.7645	-122.403	Potrero Hilln  450 Rhode Island St  San Francisco	CA	94107
167	43.6634	-70.2585	Portland - Mainen  2 Somerset St  Portland	ME	04101
168	34.2735	-118.555	Northridge (Porter Ranch)n  19340 Rinaldi Street  Northridge	CA	91326
169	33.584	-111.979	Paradise Valleyn  10810 N Tatum Blvd  Phoenix	AZ	85028
170	29.4956	-98.4812	Alamo Quarryn  255 E. Basse Rd	TX	78209
171	35.8025	-78.6863	Raleighn  3540 Wade Ave  Raleigh	NC	27607
172	37.7617	-121.961	San Ramonn  100 Sunset Drive  San Ramon	CA	94583
173	49.2901	-123.133	Robsonn  1675 Robson Street  Vancouver	BC	V6G
174	40.7534	-74.4054	Rose Cityn  222 Main St  Madison	NJ	07940
175	33.8474	-118.39	Redondo Beachn  405 North Pacific Coast Hwy  Redondo Beach	CA	90277
176	40.9784	-74.1225	Ridgewoodn  44 Godwin Ave  Ridgewood	NJ	07450
177	37.4822	-122.232	Redwood Cityn  1250 Jefferson Ave  Redwood City	CA	94062
178	38.9518	-77.3492	Restonn  11660 Plaza America Dr  Reston	VA	20190
179	47.6662	-122.102	Redmondn  17991 NE Redmond Way  Redmond	WA	98052
180	39.4688	-119.787	Renon  6139 S. Virginia Street  Reno	NV	89502
181	38.7674	-121.267	Rosevillen  1001 Galleria Blvd.  Roseville	CA	95678
182	47.6753	-122.316	Roosevelt Squaren  1026 NE 64th Street  Seattle	WA	98115
183	42.361	-71.1139	River Streetn  340 River St  Camidge	MA	02139
184	34.4393	-119.745	Santa Barbaran  3761 State Street  Santa Barbara	CA	93105
185	33.6537	-111.927	Scottsdalen  7111 East Mayo Boulevard  Phoenix	AZ	85054
186	33.9178	-84.3799	Sandy Springsn  5930 Roswell Rd  Atlanta	GA	30328
187	38.4038	-122.824	Sebastopoln  6910 McKinley St  Sebastopol	CA	95472
188	29.6001	-95.6234	Sugar Landn  15900 Southwest Freeway  Sugar Land	TX	77478
189	34.1579	-118.414	Sherman Oaksn  12905 Riverside Drive  Sherman Oaks	CA	91423
190	34.1256	-118.479	Sherman Oaks Westn  4520 N. Sepulveda Blvd  Sherman Oaks	CA	91403
191	34.0333	-118.481	23rd u0026 Wilshire Blvdn  2201 Wilshire Blvd  Santa Monica	CA	90403
192	37.5446	-122.293	San Mateon  1010 Park Place  San Mateo	CA	94403
193	38.2912	-122.462	Sonoman  Sonoma Marketplace  201 W.Napa St  Sonoma	CA	95476
194	37.7813	-122.4	SoMan  399 4th Street  San Francisco	CA	94107
195	39.9429	-75.1577	South Streetn  929 South Street  Philadelphia	PA	19147
196	37.6476	-77.5997	Short Pumpn  11173 West Broad Street  Glen Allen	VA	23060
197	38.7796	-77.2343	Springfieldn  8402 Old Keene Mill Rd  Springfield	VA	22152
198	43.5958	-79.6447	Square One Mississaugan  155 Square One Dr.  Mississauga	ON	L5B
199	37.9713	-122.517	San Rafaeln  340 Third St  San Rafael	CA	94901
200	38.4423	-122.675	Santa Rosan  1181 Yulupa Ave  Santa Rosa	CA	95405
201	37.3236	-122.04	Cupertinon  20955 Stevens Creek Blvd  Cupertino	CA	95014
202	37.7696	-122.453	Haight Streetn  690 Stanyan Street  San Francisco	CA	94117-3305
203	36.9789	-122.015	Santa Cruzn  911 Soquel Ave  Santa Cruz	CA	95062
204	40.7236	-111.859	Sugar Housen  1131 E. Wilmington Ave.  Salt Lake City	UT	84106
205	39.9565	-105.168	Superiorn  303 Marshall Rd.  Superior	CO	80027
206	42.4794	-70.9054	Swampscottn  331 Paradise Rd  Swampscott	MA	01907
207	42.3438	-71.0873	Symphonyn  15 Westland Ave  Boston	MA	02115
208	45.5338	-122.877	Tanasbournen  19440 NW Cornell Rd.  Hillsboro	OR	97124
209	38.9491	-77.0792	Tenleytownn  4530 40th St NW Tenley Circle  Washington	DC	20016
210	33.7926	-118.331	Torrancen  2655 Pacific Coast Hwy  Torrance	CA	90505
211	27.9567	-82.5084	Tampan  1548 North Dale May Highway.  Tampa	FL	33607
212	40.7155	-74.012	Tribecan  270 Greenwich Street  New York	NY	10007
213	34.1703	-118.541	Tarzanan  18700 Ventura Blvd  Tarzana	CA	91356
214	36.1976	-115.25	Tenayan  7250 W. Lake Mead Blvd.  Las Vegas	NV	89128
215	38.9034	-77.2045	Tysonsn  7511 Leesburg Pike  Falls Church	VA	22043
216	41.8373	-71.4083	Universityn  601 N Main St  Providence	RI	02904
217	40.7348	-73.9913	Union Squaren  4 Union Square South  New York	NY	10003
218	40.794	-73.9671	Upper West Siden  808 Columbus Avenue  New York	NY	10025
219	34.4126	-118.556	Valencian  24130 Valencia Blvd  Santa Clarita	CA	91355
220	34.0012	-118.47	Venicen  225 Lincoln Blvd.  Venice	CA	90291
221	30.002	-90.159	Veteransn  3420 Veterans Memorial Blvd  Metairie	LA	70002
222	38.9022	-77.2627	Viennan  143 Maple Ave East  Vienna	VA	22180
223	37.8927	-122.055	Walnut Creekn  1333 Newell Ave  Walnut Creek	CA	94596
224	34.8256	-82.301	Greenvillen  1140 Woodruff Road  Greenville	SC	29607
225	41.7608	-72.739	West Hartfordn  50 Raymond Rd  West Hartford	CT	06107
226	41.0285	-73.7588	White Plainsn  110 Bloomingdale Road  White Plains	NY	10605-1503
227	34.0226	-118.438	West Los Angelesn  11666 National Blvd  Los Angeles	CA	90064
228	42.3025	-71.2857	Wellesleyn  442 Washington Street  Wellesley	MA	02482
229	42.4601	-71.1636	Woburnn  400 Camidge Rd.  Woburn	MA	01801
230	40.8052	-74.2481	West Orangen  235 Prospect Ave  West Orange	NJ	07052
231	33.8409	-84.3814	Buckhead n  77 West Paces Ferry Rd NW  Atlanta	GA	30305
232	41.1281	-73.3801	Westportn  399 Post Road West  Westport	CT	06880
233	47.6183	-122.338	Westlaken  2210 Westlake Ave  Seattle	WA	98121
234	39.696	-104.98	Washington Parkn  1111 S. Washington Street  Denver	CO	80210
235	34.0612	-118.447	Westwoodn  1050 S. Gayley Ave  Los Angeles	CA	90024
236	43.6719	-79.3949	Yorkvillen  87 Avenue Rd  Toronto	ON	M5R
237	40.6123	-80.0544	Wexfordn  10576 Perry Highway  Wexford	PA	15090
238	39.6524	-104.902	Tamaracn  7400 E. Hampden Ave  Denver	CO	80231
239	38.9821	-76.54	Annapolisn  200 Harker PIace  Suite 100  Annapolis	MD	21401
240	34.2136	-77.9008	Wilmingtonn  3804 Oleander Drive  Wilmington	NC	28403
241	29.614	-98.5113	Vineyardn  18403 Blanco Road  San Antonio	TX	78258
242	37.7238	-122.455	Oceann  1150 Ocean Ave  San Francisco	CA	94112
243	35.1472	-80.8301	Charlotten  6610 Fairview Rd.  Charlotte	NC	28210
244	39.387	-107.083	Roaring Forkn  340 Reed Street  Basalt	CO	81621
245	28.093	-82.5042	Carrollwoodn  3802 Northdale Blvd.  Tampa	FL	33624-1833
246	43.8579	-79.3223	Unionvillen  3997 Highway 7  Markham	ON	L3R
247	43.6079	-116.195	Boisen  401 S. Broadway  Boise	ID	83702
248	33.6165	-117.874	Newport Beachn  415 Newport Center Drive  Newport Beach	CA	92660
249	36.8509	-76.0282	Virginia Beachn  1800 Laskin Road  Virginia Beach	VA	23454
250	34.2401	-119.179	Oxnardn  650 Town Center Drive  Oxnard	CA	93036
251	33.993	-80.9755	Columbian  702 Cross Hill Rd + Fort Jackson Blvd  Suite 300  Columbia	SC	29205-2084
252	32.275	-110.874	River Roadn  5555 E. River Road  Tucson	AZ	85750-1949
253	32.9813	-117.252	Del Marn  2600 Via De La Valle	CA	92014
254	29.7125	-95.7715	Katyn  6601 S. Fry Road  Katy	TX	77494
255	39.623	-105.092	Governoru2019s Ranchn  5155 S. Wadsworth Blvd.  Littleton	CO	80123-2217
256	42.3462	-71.1083	Brooklinen  1028 Beacon Street  Brookline	MA	02446
257	41.3778	-73.4757	Danburyn  5C Sugar Hollow Road  Danbury	CT	06810
258	37.555	-121.985	Fremont - Californian  3111 Mowry Avenue  Fremont	CA	94538
259	32.9516	-96.8207	Addisonn  5100 Belt Line Road	TX	75254
260	42.1716	-70.953	South Weymouthn  35 Pleasant Street  South Weymouth	MA	02190
261	42.465	-71.0626	Melrosen  880 Main Street  Melrose	MA	02176-2346
262	42.3756	-71.0663	Charlestownn  51 Austin St.  Charlestown	MA	02129
263	42.5151	-71.0298	Lynnfieldn  100 Market Street  (at MarketStreet Lynnfield)  Lynnfield	MA	01940
264	32.0433	-81.0719	Savannahn  1815 E. Victory Drive  Suite 101  Savannah	GA	31404
265	40.9924	-73.6754	Port Chestern  575 Boston Post Road  Port Chester	NY	10573
266	42.4164	-71.1594	Arlington MAn  808 Massachusetts Avenue  Arlington	MA	02476
267	37.7684	-122.427	2001 Market Streetn  2001 Market Street  San Francisco	CA	94114
268	39.5887	-106.1	Friscon  261 Lusher Court  Frisco	CO	80443
269	37.7092	-97.228	Wichitan  1423 N. Webb Rd.  Suite 101  Wichita	KS	67206
270	40.6749	-73.9888	Third and 3rd (Brooklyn)n  214 3rd Street  Brooklyn	NY	11215
271	29.9671	-90.0845	Broad Streetn  300 N Broad St  Suite 103  New Orleans	LA	70119
272	36.0306	-95.9237	Yalen  9136 S. Yale Ave.  Tulsa	OK	74137
273	30.4063	-97.7201	Domainn  11920 Domain Drive  Austin	TX	78758
274	35.1132	-89.8941	Poplar Avenuen  5014 Poplar Avenue  Memphis	TN	38117
275	29.9985	-95.562	Championsn  10133 Louetta Road  Houston	TX	77070
276	32.8791	-97.1555	Colleyvillen  4801 Colleyville Blvd  Colleyville	TX	76034
277	29.7493	-95.4622	Post Oakn  1700 Post Oak Blvd  Suite 100  Houston	TX	77056
278	33.0738	-97.0855	Highland Villagen  The Shops at Highland Village  4041 Waller Creek  Highland Village	TX	75077
279	30.161	-92.0517	Ambassador Cafferyn  4247 Ambassador Caffery Parkway  Lafayette	LA	70508
280	39.9159	-75.0114	Cherry Hilln  1558 North Kings Highway  Cherry Hill	NJ	08034
281	45.4425	-122.803	Greenwayn  12220 SW Scholls Ferry Road  Tigard	OR	97223
282	42.7103	-73.8165	Albanyn  1425 Central Ave  Albany	NY	12205
283	33.7256	-116.4	Palm Desertn  44-459 Town Center Way  Palm Desert	CA	92260
284	41.6725	-70.3018	Hyannisn  990 Iyannough Road  Hyannis	MA	02601
285	34.1029	-118.258	365 Silver Laken  2520 Glendale Blvd  Los Angeles	CA	90039
286	35.1916	-111.641	Flagstaffn  320 S. Camidge Lane  Flagstaff	AZ	86001
287	35.2507	-120.687	San Luis Obispon  1531 Froom Ranch Way  San Luis Obispo	CA	93405
288	32.187	-80.7173	Hilton Head Islandn  50 Shelter Cove Lane  Suite R  Hilton Head Island	SC	29928
289	35.5829	-82.525	East Ashevillen  4 South Tunnel Rd.  Asheville	NC	28805
290	34.0695	-84.2784	Avalonn  2800 Old Milton Pkwy  Alpharetta	GA	30009
291	35.444	-80.8718	Lake Normann  9129 Sam Furr Rd.  Huntersville	NC	28078
292	33.977	-118.417	Playa Vistan  12746 West Jefferson Blvd Suite #1100  Playa Vista	CA	90094
293	28.0173	-82.7334	Clearwatern  27001 US 19 North  Westfield Countryside Mall  Clearwater	FL	33761
294	45.3993	-75.6855	Lansdowne Parkn  951 Bank Street  Ottawa	ON	K1S
295	37.8807	-122.298	Gilmann  1025 Gilman Street  Berkeley	CA	94710
296	37.3321	-121.905	San Jose - on The Alamedan  777 The Alameda  San Jose	CA	95126
297	39.2139	-76.8558	Columbia - Marylandn  10275 Little Patuxent Pkwy  Columbia	MD	21044
298	43.7609	-79.4103	Yonge and Sheppardn  4771 Yonge Street  Toronto	ON	M2N
299	42.7803	-71.4954	Nashuan  255 Amherst Street  Nashua	NH	03063
300	30.1697	-95.4714	The Woodlandsn  1925 Hughes Landing Blvd.  Suite 100  The Woodlands	TX	77380
301	32.7958	-96.8015	Uptown Dallasn  2510 McKinney Ave  Dallas	TX	75201
302	34.7494	-92.4071	Bowmann  501 Bowman Road  Little Rock	AR	72211
303	29.7524	-95.5	Voss n  1407 South Voss Rd  Houston	TX	77057
304	39.9134	-105.045	Bradburnn  4451 Main St.  Westminster	CO	80031
305	26.2613	-80.1013	Pompano Beachn  2411 N Federal Highway  Pompano Beach	FL	33062
306	26.0937	-80.2487	Davien  1903 S. University Drive  Town and Country Shoppes Plaza  Davie	FL	33324
307	42.3454	-71.0628	South Endn  348 Harrison Avenue  Boston	MA	02118
308	40.7798	-73.953	Upper East Siden  1551 3rd Ave  etween East 88th and East 87th Streets  New York	NY	10128
309	38.9115	-94.7565	Olathen  14615 W. 119th Street  Olathe	KS	66062
310	30.6772	-88.151	Mobilen  3968 Airport Blvd  Mobile	AL	36608
311	35.9331	-84.0155	Knoxvillen  6730 Papermill Drive  Knoxville	TN	37919
312	37.7058	-121.89	Dublin CAn  5200 Dublin Blvd.  Dublin	CA	94568
313	40.7992	-74.4889	Morristownn  110 Washington Street  Morristown	NJ	07960
314	47.2271	-122.536	Chambers Bayn  3515 Bridgeport Way West  University Place	WA	98466
315	39.628	-84.1891	Daytonn  1050 Miamisburg Centerville Road  Dayton	OH	45458
316	36.1137	-94.1464	Fayettevillen  3425 N. College Avenue  Fayetteville	AR	72703
317	39.0684	-77.485	Ashburnn  19800 Belmont Chase Drive  Suite 160  Ashburn	VA	20147
318	40.057	-82.9096	Eastonn  4100 Easton Gateway Drive  Columbus	OH	43219
319	35.0888	-89.8021	Germantownn  7825 U.S. Highway 72  Germantown	TN	38138-3906
320	40.6318	-74.3051	Clarkn  1255 Raritan Road Unit 150  Clark	NJ	07066
321	34.0459	-118.258	Downtown Los Angelesn  788 S. Grand Avenue  Los Angeles	CA	90017
322	49.2661	-123.005	North Burnabyn  4420 Lougheed Highway  Burnaby	BC	V5C
323	41.4787	-81.8396	Rocky Rivern  19607 Detroit Road  Rocky River	OH	44116
324	37.1036	-76.4918	Newport Newsn  12090 Jefferson Ave.  Suite 100  Newport News	VA	23606
325	34.7214	-86.5937	Huntsvillen  2501 Memorial Pkwy SW  Huntsville	AL	35801
326	29.7349	-95.5706	Westchasen  11041 Westheimer Rd.  Houston	TX	77042
327	33.9103	-117.851	Brean  3301 Imperial Hwy.  corner Valencia Avenue  Brea	CA	92823
328	33.6463	-117.744	Irvinen  8525 Irvine Center Drive  Irvine	CA	92618
329	30.3902	-86.4202	Destinn  4402 Legendary Drive  Destin	FL	32541
330	32.9989	-96.6986	Citylinen  CityLine DFW  1411 E. Renner Rd.  Richardson	TX	75082
331	48.7436	-122.461	Bellingham Lakewayn  1030 Lakeway Drive  Bellingham	WA	98229
332	40.1549	-74.0561	Spring Lake Walln  1933 State Road 35  Wall	NJ	07719
333	30.3924	-90.0846	Mandevillen  3450 Highway 190  Suite 8  Mandeville	LA	70471
334	32.4442	-93.7269	Shreveportn  1380 E 70th St  Shreveport	LA	71105
335	32.9013	-96.9603	Las Colinasn  6741 N MacArthur Blvd  Irving	TX	75039
336	32.7	-97.413	Fort Worthn  3720 Vision Drive  Fort Worth	TX	76109
337	37.3808	-121.976	Santa Claran  2732 Augustine Drive  Suite 1600  Santa Clara	CA	95054
338	42.9547	-71.4764	Bedford New Hampshiren  121 South River Rd  Bedford	NH	03110
339	42.5683	-71.42	Westfordn  160 Littleton Road  Westford	MA	01886
340	38.8629	-77.0546	Pentagon Cityn  520 12th St. South	VA	22202
341	40.7161	-73.9597	Williamsburgn  238 Bedford Ave  Brooklyn	NY	11249
342	44.0503	-123.088	Eugenen  353 E Broadway  Eugene	OR	97401
343	48.4567	-123.377	Victorian  3587 Blanshard St  Victoria	BC	V8Z
344	28.6066	-81.3645	Winter Park Northn  1030 N. Orlando Ave  Winter Park	FL	32789
345	40.5647	-75.562	Allentownn  750 N. Krocks Road  Suite 301  Allentown	PA	18106
346	40.0021	-75.2755	Wynnewoodn  15 East Wynnewood Rd  Wynnewood	PA	19096
347	32.3586	-86.1728	Montgomeryn  1450 Taylor Rd  Montgomery	AL	36117
348	45.4157	-122.662	365 Lake Oswegon  11 S State St.  Lake Oswego	OR	97034
349	30.5341	-97.8184	365 Cedar Parkn  5001 183 Toll Road  Building A Suite 100  Cedar Park	TX	78613
350	34.0221	-118.466	365 Santa Monica Picon  2121 Cloverfield Blvd  Santa Monica	CA	90404
351	37.9741	-122.059	365 Concordn  2085 Diamond Blvd.  Concord	CA	94520
352	41.111	-81.5714	365 Akronn  1745 W. Market Street  Akron	OH	44313
353	33.7921	-84.2845	365 Decaturn  1555 Church St.  Decatur	GA	30030
354	29.8137	-95.3987	365 Independence Heightsn  101 N. Loop W.  Houston	TX	77018
355	33.8284	-118.143	365 Long Beachn  3881 Lakewood Blvd.  Suite A  Long Beach	CA	90808
356	39.9632	-75.1741	Philly Center Cityn  2101 Pennsylvania Avenue  Philadelphia	PA	19130
357	37.9256	-122.017	Ygnacio Valley Roadn  2941 Ygnacio Valley Rd.  Walnut Creek	CA	94598
358	31.8341	-106.548	El Pason  100 Pitt Street  El Paso	TX	79912
359	40.147	-105.129	Longmontn  1250 South Hover Road  Suite 300  Longmont	CO	80501
360	40.7547	-73.9849	Bryant Parkn  1095 Avenue of the Americas  New York	NY	10036
361	40.74	-74.17	Newarkn  633 Broad Street  Newark	NJ	07102
362	40.3461	-80.058	South Hillsn  111 Siena Drive  Upper St. Clair	PA	15241
363	38.9005	-76.9976	H Streetn  600 H Street	DC	20002
364	42.3613	-71.4319	Sudburyn  536 Boston Post Road  Sudbury	MA	01776
365	35.053	-80.7674	Waverlyn  7221 Waverly Walk Ave.  Charlotte	NC	28277
366	38.9692	-76.9366	Riverdale Parkn  6621-B Baltimore Ave  Riverdale Park	MD	20737
367	43.7141	-79.3779	Leasiden  1860 Bayview Ave.  Toronto	ON	M4G
368	37.9776	-84.5287	Lexingtonn  4059 Finn Way  Lexington	KY	40503
369	40.8076	-73.9462	Harlemn  100 W 125th St.  New York	NY	10027
370	33.8854	-84.3148	Chambleen  5001 Peachtree Boulevard  Chamblee	GA	30341
371	33.9982	-84.5901	Kennesawn  1300 Ernest Barrett Parkway  Kennesaw	GA	30144
372	33.3774	-86.8011	Hoovern  3780 Riverchase Village  Hoover	AL	35244
373	40.7273	-111.547	Canyon Cornersn  6598 N Landmark Drive  Park City	UT	84098
374	42.276	-71.7468	Shrewsburyn  193 Boston Turnpike  Shrewsbury	MA	01545
375	35.8336	-78.8827	West Caryn  5055 Arco Street  Cary	NC	27519
376	39.7547	-105.001	Union Stationn  1701 Wewatta Street  Denver	CO	80202
377	40.6864	-73.9784	365 Fort Greenen  292 Ashland Place  Brooklyn	NY	11217
378	25.6733	-80.3235	Dadelandn  7930 SW 104 Street  Miami	FL	33156
379	40.0314	-75.6284	Extonn  175 N. Pottstown Pike  Exton	PA	19341
380	49.3201	-123.071	North Vancouvern  120 East 13th Street  North Vancouver	BC	V7L
381	40.1881	-75.2277	Spring Housen  1111 North Bethlehem Pike  Spring House	PA	19477
382	40.577	-74.5614	Bridgewatern  319 Chimney Rock Road  Bound Brook	NJ	08805
383	35.2206	-80.8463	Uptown Charlotten  400 East Stonewall St.  Charlotte	NC	28202
384	29.6256	-82.3744	Gainesvillen  3490 SW Archer Rd  Gainesville	FL	32608
385	21.2843	-157.839	Queenn  388 Kamakee Street  Suite 100  Honolulu	HI	96814
386	39.0344	-94.5835	Kansas Cityn  301 E. 51st Street  Kansas City	MO	64112
387	34.1217	-117.692	365 Uplandn  2153 W. Baseline Rd.  Upland	CA	91784
388	34.1544	-118.337	Burbankn  3401 West Olive Avenue  Burbank	CA	91505
389	40.0639	-76.3142	Lancastern  1563 Fruitville Pike  Lancaster	PA	17601
390	47.7116	-122.179	Kirklandn  12501 120th Ave NE  Kirkland	WA	98034
391	32.7836	-79.9959	West Ashleyn  1125 Savannah Highway  Charleston	SC	29407
392	38.8803	-77.0053	South Capitol Hilln  101 H St. SE  Washington	DC	20003
393	47.6114	-122.321	Madison Broadwayn  1001 Broadway  Seattle	WA	98122
394	26.5479	-81.841	Fort Myersn  6891 Daniels Pkwy  Suite 100  Fort Myers	FL	33966
395	41.1789	-73.7515	Chappaquan  480 N Bedford Road  Chappaqua	NY	10514
396	33.8506	-84.429	365 Northside Buckheadn  3535 Northside Parkway  Atlanta	GA	30327
397	39.988	-75.4038	Newtownn  3737 West Chester Pike  Newtown Square	PA	19073
398	27.3869	-82.4644	University Stationn  5298 University Parkway  Sarasota	FL	34243
399	41.7489	-88.1997	Napervillen  2607 W. 75th Street  Naperville	IL	60540
400	41.6127	-87.855	Orland Parkn  15260 S. LaGrange Road  Orland Park	IL	60462
401	41.8304	-88.1014	Wheatonn  89 Danada Square East  Wheaton	IL	60189
402	41.8175	-87.9171	Hinsdalen  500 E. Ogden Ave.  Hinsdale	IL	60521
403	41.894	-87.9605	Elmhurstn  215 S. IL Rte 83  Elmhurst	IL	60126
404	41.5192	-87.4705	Scherervillen  199 US HWY 41  Schererville	IN	46375
405	41.8874	-87.8063	River Forestn  7245 Lake St  River Forest	IL	60305
406	42.0424	-88.0368	Schaumburgn  750 N. Martingale Rd.  Schaumburg	IL	60173
407	41.7807	-87.6465	Englewoodn  832 W 63rd Street  Chicago	IL	60621
408	41.8675	-87.6389	South Loopn  1101 S. Canal St  Chicago	IL	60607
409	41.8822	-87.647	West Loopn  1 N. Halsted Street  Chicago	IL	60661
410	41.8916	-87.6207	Streetervillen  255 E. Grand Ave  Chicago	IL	60611
411	41.895	-87.6293	Gold Coastn  30 West Huron St  Chicago	IL	60654
412	41.9087	-87.6526	Lincoln Parkn  1550 N. Kingsbury Street  Chicago	IL	60642
413	41.9252	-87.6534	DePauln  959 West Fullerton Avenue  Chicago	IL	60614
414	26.849	-80.0937	Palm Beach Gardensn  11701 Lake Victoria Gardens Ave  Palm Beach Gardens	FL	33410
415	41.94	-87.6682	Lakeviewn  3201 N. Ashland Avenue  Chicago	IL	60657
416	26.6413	-80.2062	Wellingtonn  2635 State Road 7  Wellington	FL	33414-9372
417	41.9485	-87.6499	Halsted and Wavelandn  3640 N Halsted St  Chicago	IL	60613
418	26.2546	-81.7999	Naplesn  9101 Strada Place  Naples	FL	34108
419	41.8019	-87.588	Hyde Parkn  5118 S. Lake Park Ave  Chicago	IL	60615
420	25.7811	-80.1414	South Beachn  1020 Alton Road  Miami Beach	FL	33139
421	26.7207	-80.0893	West Palm Beachn  1845 Palm Beach Lakes Boulevard  West Palm Beach	FL	33401
422	41.9905	-87.7487	Sauganashn  6020 N Cicero Ave  Chicago	IL	60646
423	42.0475	-87.6795	Downtown Evanstonn  1640 Chicago Ave  Evanston	IL	60201
424	42.1663	-87.8481	Deerfieldn  760 Waukegan Rd  Deerfield	IL	60015
425	42.1065	-87.8007	Northookn  840 Willow Road  Northook	IL	60062
426	42.1596	-88.044	Kildeern  20281 N Rand Road  Kildeer	IL	60074
427	39.9992	-86.1312	Carmeln  14598 Clay Terrace Blvd.  Carmel	IN	46032
428	39.9146	-86.139	Eighty-Sixth St.n  1300 E. 86th St.  Indianapolis	IN	46240
429	39.7684	-86.1517	Downtown Indianapolisn  320 E. Market St.  Indianapolis	IN	46204
430	41.699	-86.1856	Mishawakan  4230 Grape Road  Mishawaka	IN	46545-1007
431	41.5985	-93.7597	West Des Moinesn  4100 University Ave Suite #260  West Des Moines	IA	50266
432	41.262	-96.0684	Omahan  10020 Regency Circle  Omaha	NE	68114
433	40.8131	-96.6392	Lincolnn  6055 O Street  Lincoln	NE	68510
434	42.0679	-87.7022	Green Bay Roadn  2748 Green Bay Road  Evanston	IL	60201
435	32.3555	-90.1509	Jacksonn  4500 I-55 North Suite 99  Exit 100  Jackson	MS	39211
436	28.6642	-81.3814	Altamonte Springsn  305 East Altamonte Drive  Suite 1000  Altamonte Springs	FL	32701
437	42.376	-71.1029	Somervillen  45 Beacon Street  Somerville	MA	02143
438	39.5921	-104.962	SouthGlennn  6853 South York Street  Suite 119  Centennial	CO	80122
439	40.9635	-73.8556	Yonkersn  Westchesteru0027s Ridge Hill  1 Ridge Hill Blvd.  Yonkers	NY	10710
440	33.7312	-117.991	Huntington Beachn  7881 Edinger Ave Suite 150  Huntington Beach	CA	92647
441	39.0431	-77.1131	Rockvillen  11355 Woodglen Drive  Rockville	MD	20852
442	42.2411	-87.9437	Vernon Hillsn  851 N. Milwaukee Avenue  Vernon Hills	IL	60061
443	34.1682	-118.597	Woodland Hillsn  21347 Ventura Blvd  Woodland Hills	CA	91364
444	39.5451	-104.943	Highlands Ranchn  9366 S. Colorado Blvd.  Highlands Ranch	CO	80126
445	40.0239	-105.256	Pearln  2905 Pearl St  Boulder	CO	80301
446	40.758	-111.872	Trolley Squaren  544 South 700 East  Salt Lake City	UT	84102
447	30.4638	-84.2704	Tallahasseen  1817 Thomasville Road  Tallahassee	FL	32303
448	40.6257	-111.834	Cottonwood Heightsn  6930 S. Highland Drive  Cottonwood Heights	UT	84121
449	40.3752	-74.0874	Middletownn  471 State Route 35 North  Red Bank	NJ	07701-5036
450	33.3796	-111.93	Tempen  5120 S. Rural Rd  Tempe	AZ	85282
451	34.8636	-111.785	Sedonan  1420 West Hwy. 89A  Sedona	AZ	86336
452	40.352	-74.3095	Marlboron  113 Route 9 South  Marlboro	NJ	07726
453	33.5064	-112.038	Camelbackn  4701 N 20th Street  Phoenix	AZ	85016
454	35.1029	-106.605	Indian School Plazan  2103 Carlisle Boulevard NE  Albuquerque	NM	87110
455	32.2357	-110.922	Speedwayn  3360 E. Speedway Blvd.  Tucson	AZ	85716
456	38.9961	-77.0242	Silver Springn  833 Wayne Ave  Silver Spring	MD	20910
457	33.5439	-117.784	Laguna Beachn  283 Broadway St.  Laguna Beach	CA	92651
458	40.5591	-105.079	Fort Collinsn  2201 S College Ave  Fort Collins	CO	80525
459	38.6222	-90.5155	Town and Countryn  1160 Town and Country Crossing  Town and Country	MO	63017
460	38.6419	-90.2615	Central West Endn  4577 West Pine Blvd  St. Louis	MO	63108
461	38.6271	-90.3479	Gallerian  1601 S. Brentwood Blvd  Saint Louis	MO	63144
462	42.011	-87.825	Park Ridgen  225 W. Touhy Ave  Park Ridge	IL	60068
463	41.9911	-87.6598	Chicago Edgewatern  6009 North Broadway  Chicago	IL	60660
464	41.773	-87.9494	Willowookn  6300 S. Robert Kingery Highway  Willowook	IL	60527
465	26.1535	-80.1178	Fort Lauderdalen  2000 N Federal Hwy  Fort Lauderdale	FL	33305
466	25.772	-80.1891	Downtown Miamin  299 SE 3rd Ave  Miami	FL	33131
467	27.3377	-82.541	Sarasotan  1451 1st Street  Sarasota	FL	34236
468	25.8881	-80.1654	North Miamin  12150 Biscayne Blvd  North Miami	FL	33181
469	42.9786	-78.7958	Buffalon  Northtown Plaza  3139 Sheridan Dr  Amherst	NY	14226
470	44.9431	-92.9299	Woodburyn  305 Radio Drive  Woodbury	MN	55125
471	44.8678	-93.328	Edinan  7401 France Ave S  Edina	MN	55435
472	45.0913	-93.4358	Maple Groven  12201 Elm Creek Blvd N  Maple Grove	MN	55369
473	44.9742	-93.4453	Minnetonkan  1001 Plymouth Road  Minnetonka	MN	55305
474	44.9828	-93.2695	Hennepinn  222 Hennepin Avenue  Minneapolis	MN	55401
475	44.9469	-93.1661	St Pauln  1575 Selby Ave.  St Paul	MN	55104
476	42.7283	-84.453	East Lansingn  2750 E. Grand River Ave.  East Lansing	MI	48823
477	42.2484	-83.758	Cranookn  990 W. Eisenhower Parkway  Ann Arbor	MI	48103
478	42.258	-83.6982	Ann Arborn  3135 Washtenaw Ave  Ann Arbor	MI	48104
479	42.3484	-83.0566	Detroitn  115 Mack Ave.  Detroit	MI	48201
480	42.5468	-83.1942	Birminghamn  2100 East Maple Road  Birmingham	MI	48009
481	42.5293	-83.3632	West Bloomfieldn  7350 Orchard Lake Road  West Bloomfield	MI	48322
482	42.6822	-83.1917	Rochester Hillsn  2918 Walton Blvd  Rochester Hills	MI	48309
483	43.0604	-87.8838	Milwaukeen  2305 N. Prospect Ave  Milwaukee	WI	53211
484	43.0759	-88.0514	Wauwatosan  11100 W. Burleigh Street  Wauwatosa	WI	53222
485	43.0747	-89.4442	Madisonn  3313 University Ave  Madison	WI	53705
486	36.0956	-80.2752	Winston-Salemn  41 Miller Street  Winston-Salem	NC	27104
487	41.7183	-87.6822	Evergreen Parkn  9600 S. Western Ave  Evergreen Park	IL	60805
488	33.7862	-84.3885	Midtown Atlantan  22 14th Street NW  Atlanta	GA	30309
489	44.9477	-93.3222	Lake Calhounn  3060 Excelsior Blvd  Minneapolis	MN	55416
490	41.45	-81.4851	Orange Villagen  50 Wall St  Orange	OH	44122
491	40.5403	-74.3663	Metuchenn  645 Middlesex Avenue  Metuchen	NJ	08840
